ONEWEB-0468             
1 51652U 22012AG  26121.23244134 -.00000644  00000+0 -18818-2 0  9994
2 51652  87.8856  45.6187 0002138  73.8641 286.2722 13.10381872203151
ONEWEB-0473             
1 51653U 22012AH  26121.29382817 -.00000074  00000+0 -24806-3 0  9994
2 51653  87.8857  45.6082 0002018  79.4436 280.6919 13.10376029203163
ONEWEB-0474             
1 51654U 22012AJ  26121.28552861 -.00000436  00000+0 -12862-2 0  9992
2 51654  87.8867  45.5895 0002212  77.7559 282.3816 13.10374956203150
ONEWEB-0475             
1 51655U 22012AK  26121.06597203 -.00000021  00000+0 -87366-4 0  9991
2 51655  87.9179  15.2370 0002475  81.6790 278.4622 13.17650088207483
ONEWEB-0490             
1 54113U 22138A   26121.27980883 -.00000032  00000+0 -11290-3 0  9999
2 54113  87.9153 314.3188 0001868  82.7962 277.3383 13.19724588170643
ONEWEB-0492             
1 54114U 22138B   26121.22926273 -.00000010  00000+0 -58320-4 0  9990
2 54114  87.9147 314.3341 0001708  81.3126 278.8200 13.19725087170647
ONEWEB-0495             
1 54115U 22138C   26121.28296886 -.00000019  00000+0 -80261-4 0  9995
2 54115  87.9150 314.3257 0002178  72.5635 287.5736 13.19724657170639
ONEWEB-0497             
1 54116U 22138D   26121.06815162  .00000080  00000+0  16700-3 0  9998
2 54116  87.9150 314.3589 0001789  85.3105 274.8232 13.19724894170597
ONEWEB-0499             
1 54117U 22138E   26121.27901054 -.00000003  00000+0 -40606-4 0  9998
2 54117  87.9148 314.3280 0002020  84.6333 275.5030 13.19724159170630
ONEWEB-0500             
1 54118U 22138F   26121.28139217 -.00000020  00000+0 -82771-4 0  9992
2 54118  87.9153 314.3177 0001698  88.3966 271.7361 13.19724394170642
ONEWEB-0501             
1 54119U 22138G   26121.08394997  .00000045  00000+0  80210-4 0  9990
2 54119  87.9153 314.3566 0002015  81.1999 278.9362 13.19724465170599
ONEWEB-0502             
1 54120U 22138H   26121.29717718 -.00000011  00000+0 -59214-4 0  9990
2 54120  87.9157 314.3032 0002037  85.1105 275.0260 13.19725154170647
ONEWEB-0503             
1 54121U 22138J   26121.28612652 -.00000025  00000+0 -95936-4 0  9997
2 54121  87.9160 314.3100 0001972  94.6086 265.5272 13.19724704170634
ONEWEB-0504             
1 54122U 22138K   26121.27347303  .00000037  00000+0  60087-4 0  9995
2 54122  87.9156 314.3185 0002037  86.5346 273.6020 13.19723900170644
ONEWEB-0505             
1 54123U 22138L   26121.27031233  .00000014  00000+0  15318-5 0  9991
2 54123  87.9157 314.3200 0002178  80.2369 279.9010 13.19726534170628
ONEWEB-0506             
1 54124U 22138M   26121.24505714  .00000091  00000+0  19424-3 0  9994
2 54124  87.9157 314.3218 0001978  82.9579 277.1779 13.19724630170613
