[{"OBJECT_NAME":"ONEWEB-0468","OBJECT_ID":"2022-012AG","EPOCH":"2026-05-01T05:34:42.931776","MEAN_MOTION":13.10381872,"ECCENTRICITY":0.0002138,"INCLINATION":87.8856,"RA_OF_ASC_NODE":45.6187,"ARG_OF_PERICENTER":73.8641,"MEAN_ANOMALY":286.2722,"EPHEMERIS_TYPE":0,"CLASSIFICATION_TYPE":"U","NORAD_CAT_ID":51652,"ELEMENT_SET_NO":999,"REV_AT_EPOCH":20315,"BSTAR":-0.0018817999999999999,"MEAN_MOTION_DOT":-6.44e-06,"MEAN_MOTION_DDOT":0.0},{"OBJECT_NAME":"ONEWEB-0473","OBJECT_ID":"2022-012AH","EPOCH":"2026-05-01T07:03:06.753888","MEAN_MOTION":13.10376029,"ECCENTRICITY":0.0002018,"INCLINATION":87.8857,"RA_OF_ASC_NODE":45.6082,"ARG_OF_PERICENTER":79.4436,"MEAN_ANOMALY":280.6919,"EPHEMERIS_TYPE":0,"CLASSIFICATION_TYPE":"U","NORAD_CAT_ID":51653,"ELEMENT_SET_NO":999,"REV_AT_EPOCH":20316,"BSTAR":-0.00024806000000000003,"MEAN_MOTION_DOT":-7.4e-07,"MEAN_MOTION_DDOT":0.0},{"OBJECT_NAME":"ONEWEB-0474","OBJECT_ID":"2022-012AJ","EPOCH":"2026-05-01T06:51:09.671904","MEAN_MOTION":13.10374956,"ECCENTRICITY":0.0002212,"INCLINATION":87.8867,"RA_OF_ASC_NODE":45.5895,"ARG_OF_PERICENTER":77.7559,"MEAN_ANOMALY":282.3816,"EPHEMERIS_TYPE":0,"CLASSIFICATION_TYPE":"U","NORAD_CAT_ID":51654,"ELEMENT_SET_NO":999,"REV_AT_EPOCH":20315,"BSTAR":-0.0012862000000000001,"MEAN_MOTION_DOT":-4.36e-06,"MEAN_MOTION_DDOT":0.0},{"OBJECT_NAME":"ONEWEB-0475","OBJECT_ID":"2022-012AK","EPOCH":"2026-05-01T01:34:59.983392","MEAN_MOTION":13.17650088,"ECCENTRICITY":0.0002475,"INCLINATION":87.9179,"RA_OF_ASC_NODE":15.237,"ARG_OF_PERICENTER":81.679,"MEAN_ANOMALY":278.4622,"EPHEMERIS_TYPE":0,"CLASSIFICATION_TYPE":"U","NORAD_CAT_ID":51655,"ELEMENT_SET_NO":999,"REV_AT_EPOCH":20748,"BSTAR":-8.7366e-05,"MEAN_MOTION_DOT":-2.1e-07,"MEAN_MOTION_DDOT":0.0},{"OBJECT_NAME":"ONEWEB-0490","OBJECT_ID":"2022-138A","EPOCH":"2026-05-01T06:42:55.482912","MEAN_MOTION":13.19724588,"ECCENTRICITY":0.0001868,"INCLINATION":87.9153,"RA_OF_ASC_NODE":314.3188,"ARG_OF_PERICENTER":82.7962,"MEAN_ANOMALY":277.3383,"EPHEMERIS_TYPE":0,"CLASSIFICATION_TYPE":"U","NORAD_CAT_ID":54113,"ELEMENT_SET_NO":999,"REV_AT_EPOCH":17064,"BSTAR":-0.0001129,"MEAN_MOTION_DOT":-3.2e-07,"MEAN_MOTION_DDOT":0.0},{"OBJECT_NAME":"ONEWEB-0492","OBJECT_ID":"2022-138B","EPOCH":"2026-05-01T05:30:08.299872","MEAN_MOTION":13.19725087,"ECCENTRICITY":0.0001708,"INCLINATION":87.9147,"RA_OF_ASC_NODE":314.3341,"ARG_OF_PERICENTER":81.3126,"MEAN_ANOMALY":278.82,"EPHEMERIS_TYPE":0,"CLASSIFICATION_TYPE":"U","NORAD_CAT_ID":54114,"ELEMENT_SET_NO":999,"REV_AT_EPOCH":17064,"BSTAR":-5.832000000000001e-05,"MEAN_MOTION_DOT":-1e-07,"MEAN_MOTION_DDOT":0.0},{"OBJECT_NAME":"ONEWEB-0495","OBJECT_ID":"2022-138C","EPOCH":"2026-05-01T06:47:28.509504","MEAN_MOTION":13.19724657,"ECCENTRICITY":0.0002178,"INCLINATION":87.915,"RA_OF_ASC_NODE":314.3257,"ARG_OF_PERICENTER":72.5635,"MEAN_ANOMALY":287.5736,"EPHEMERIS_TYPE":0,"CLASSIFICATION_TYPE":"U","NORAD_CAT_ID":54115,"ELEMENT_SET_NO":999,"REV_AT_EPOCH":17063,"BSTAR":-8.026100000000001e-05,"MEAN_MOTION_DOT":-1.9e-07,"MEAN_MOTION_DDOT":0.0},{"OBJECT_NAME":"ONEWEB-0497","OBJECT_ID":"2022-138D","EPOCH":"2026-05-01T01:38:08.299968","MEAN_MOTION":13.19724894,"ECCENTRICITY":0.0001789,"INCLINATION":87.915,"RA_OF_ASC_NODE":314.3589,"ARG_OF_PERICENTER":85.3105,"MEAN_ANOMALY":274.8232,"EPHEMERIS_TYPE":0,"CLASSIFICATION_TYPE":"U","NORAD_CAT_ID":54116,"ELEMENT_SET_NO":999,"REV_AT_EPOCH":17059,"BSTAR":0.00016700000000000002,"MEAN_MOTION_DOT":8e-07,"MEAN_MOTION_DDOT":0.0},{"OBJECT_NAME":"ONEWEB-0499","OBJECT_ID":"2022-138E","EPOCH":"2026-05-01T06:41:46.510656","MEAN_MOTION":13.19724159,"ECCENTRICITY":0.000202,"INCLINATION":87.9148,"RA_OF_ASC_NODE":314.328,"ARG_OF_PERICENTER":84.6333,"MEAN_ANOMALY":275.503,"EPHEMERIS_TYPE":0,"CLASSIFICATION_TYPE":"U","NORAD_CAT_ID":54117,"ELEMENT_SET_NO":999,"REV_AT_EPOCH":17063,"BSTAR":-4.0606e-05,"MEAN_MOTION_DOT":-3e-08,"MEAN_MOTION_DDOT":0.0},{"OBJECT_NAME":"ONEWEB-0500","OBJECT_ID":"2022-138F","EPOCH":"2026-05-01T06:45:12.283488","MEAN_MOTION":13.19724394,"ECCENTRICITY":0.0001698,"INCLINATION":87.9153,"RA_OF_ASC_NODE":314.3177,"ARG_OF_PERICENTER":88.3966,"MEAN_ANOMALY":271.7361,"EPHEMERIS_TYPE":0,"CLASSIFICATION_TYPE":"U","NORAD_CAT_ID":54118,"ELEMENT_SET_NO":999,"REV_AT_EPOCH":17064,"BSTAR":-8.2771e-05,"MEAN_MOTION_DOT":-2e-07,"MEAN_MOTION_DDOT":0.0},{"OBJECT_NAME":"ONEWEB-0501","OBJECT_ID":"2022-138G","EPOCH":"2026-05-01T02:00:53.277408","MEAN_MOTION":13.19724465,"ECCENTRICITY":0.0002015,"INCLINATION":87.9153,"RA_OF_ASC_NODE":314.3566,"ARG_OF_PERICENTER":81.1999,"MEAN_ANOMALY":278.9362,"EPHEMERIS_TYPE":0,"CLASSIFICATION_TYPE":"U","NORAD_CAT_ID":54119,"ELEMENT_SET_NO":999,"REV_AT_EPOCH":17059,"BSTAR":8.021e-05,"MEAN_MOTION_DOT":4.5e-07,"MEAN_MOTION_DDOT":0.0},{"OBJECT_NAME":"ONEWEB-0502","OBJECT_ID":"2022-138H","EPOCH":"2026-05-01T07:07:56.108352","MEAN_MOTION":13.19725154,"ECCENTRICITY":0.0002037,"INCLINATION":87.9157,"RA_OF_ASC_NODE":314.3032,"ARG_OF_PERICENTER":85.1105,"MEAN_ANOMALY":275.026,"EPHEMERIS_TYPE":0,"CLASSIFICATION_TYPE":"U","NORAD_CAT_ID":54120,"ELEMENT_SET_NO":999,"REV_AT_EPOCH":17064,"BSTAR":-5.9214000000000006e-05,"MEAN_MOTION_DOT":-1.1e-07,"MEAN_MOTION_DDOT":0.0},{"OBJECT_NAME":"ONEWEB-0503","OBJECT_ID":"2022-138J","EPOCH":"2026-05-01T06:52:01.331328","MEAN_MOTION":13.19724704,"ECCENTRICITY":0.0001972,"INCLINATION":87.916,"RA_OF_ASC_NODE":314.31,"ARG_OF_PERICENTER":94.6086,"MEAN_ANOMALY":265.5272,"EPHEMERIS_TYPE":0,"CLASSIFICATION_TYPE":"U","NORAD_CAT_ID":54121,"ELEMENT_SET_NO":999,"REV_AT_EPOCH":17063,"BSTAR":-9.5936e-05,"MEAN_MOTION_DOT":-2.5e-07,"MEAN_MOTION_DDOT":0.0},{"OBJECT_NAME":"ONEWEB-0504","OBJECT_ID":"2022-138K","EPOCH":"2026-05-01T06:33:48.069792","MEAN_MOTION":13.197239,"ECCENTRICITY":0.0002037,"INCLINATION":87.9156,"RA_OF_ASC_NODE":314.3185,"ARG_OF_PERICENTER":86.5346,"MEAN_ANOMALY":273.602,"EPHEMERIS_TYPE":0,"CLASSIFICATION_TYPE":"U","NORAD_CAT_ID":54122,"ELEMENT_SET_NO":999,"REV_AT_EPOCH":17064,"BSTAR":6.0087e-05,"MEAN_MOTION_DOT":3.7e-07,"MEAN_MOTION_DDOT":0.0},{"OBJECT_NAME":"ONEWEB-0505","OBJECT_ID":"2022-138L","EPOCH":"2026-05-01T06:29:14.985312","MEAN_MOTION":13.19726534,"ECCENTRICITY":0.0002178,"INCLINATION":87.9157,"RA_OF_ASC_NODE":314.32,"ARG_OF_PERICENTER":80.2369,"MEAN_ANOMALY":279.901,"EPHEMERIS_TYPE":0,"CLASSIFICATION_TYPE":"U","NORAD_CAT_ID":54123,"ELEMENT_SET_NO":999,"REV_AT_EPOCH":17062,"BSTAR":1.5318000000000003e-06,"MEAN_MOTION_DOT":1.4e-07,"MEAN_MOTION_DDOT":0.0},{"OBJECT_NAME":"ONEWEB-0506","OBJECT_ID":"2022-138M","EPOCH":"2026-05-01T05:52:52.936896","MEAN_MOTION":13.1972463,"ECCENTRICITY":0.0001978,"INCLINATION":87.9157,"RA_OF_ASC_NODE":314.3218,"ARG_OF_PERICENTER":82.9579,"MEAN_ANOMALY":277.1779,"EPHEMERIS_TYPE":0,"CLASSIFICATION_TYPE":"U","NORAD_CAT_ID":54124,"ELEMENT_SET_NO":999,"REV_AT_EPOCH":17061,"BSTAR":0.00019424,"MEAN_MOTION_DOT":9.1e-07,"MEAN_MOTION_DDOT":0.0}]